OBJECT_NAME,OBJECT_ID,EPOCH,MEAN_MOTION,ECCENTRICITY,INCLINATION,RA_OF_ASC_NODE,ARG_OF_PERICENTER,MEAN_ANOMALY,EPHEMERIS_TYPE,CLASSIFICATION_TYPE,NORAD_CAT_ID,ELEMENT_SET_NO,REV_AT_EPOCH,BSTAR,MEAN_MOTION_DOT,MEAN_MOTION_DDOT
STARLINK-3823,2022-045F,2026-06-11T06:40:05.653344,15.08832891,.0001373,53.1595,148.7238,90.0520,270.0628,0,U,52336,999,22977,.50757E-4,.52E-5,0
STARLINK-3797,2022-045G,2026-06-11T15:30:02.907936,15.08832147,.0001304,53.1597,147.2734,86.9764,273.1376,0,U,52337,999,22982,.54195E-5,-.202E-5,0
STARLINK-3792,2022-045J,2026-06-11T15:40:36.707232,15.08814694,.0001281,53.1602,146.8860,91.1476,268.9662,0,U,52339,999,22983,-.95184E-4,-.1801E-4,0
STARLINK-3818,2022-045K,2026-06-11T06:04:21.629568,15.08831902,.0001287,53.1606,139.0382,78.4686,281.6450,0,U,52340,999,22989,.61117E-4,.685E-5,0
STARLINK-3843,2022-045L,2026-06-11T05:20:37.977792,15.08821867,.00012963,53.1602,149.1269,88.0213,272.0927,0,U,52341,999,22976,.17201408E-3,.2449E-4,0
STARLINK-3850,2022-045M,2026-06-11T15:41:59.489664,15.08835862,.0001352,53.1608,137.3525,88.7765,271.3381,0,U,52342,999,22996,.52074E-4,.541E-5,0
STARLINK-3849,2022-045N,2026-06-11T15:45:56.742336,15.08827334,.0001212,53.1592,147.2223,79.9620,280.1509,0,U,52343,999,22983,-.22878E-4,-.652E-5,0
STARLINK-3851,2022-045P,2026-06-11T05:53:48.951744,15.08799794,.0001257,53.1605,139.1385,75.1042,285.0089,0,U,52344,999,22990,-.27783E-3,-.4702E-4,0
STARLINK-3852,2022-045Q,2026-06-11T16:04:34.279680,15.08835908,.0001313,53.1603,137.3313,85.1274,274.9868,0,U,52345,999,22995,.27613E-4,.151E-5,0
STARLINK-3812,2022-045R,2026-06-11T05:44:32.451072,15.08828781,.0001492,53.1603,139.1094,79.0732,281.0427,0,U,52346,999,22990,-.19892E-4,-.605E-5,0
STARLINK-3826,2022-045S,2026-06-11T15:32:45.335616,15.08833353,.0001348,53.1600,137.2740,88.9685,271.1461,0,U,52347,999,22996,.79733E-4,.981E-5,0
STARLINK-3829,2022-045T,2026-06-11T15:04:52.775904,15.08825836,.000135,53.1597,137.3522,88.8393,271.2753,0,U,52348,999,22996,.66237E-4,.766E-5,0
STARLINK-3819,2022-045U,2026-06-11T15:20:46.884192,15.08828704,.0001326,53.1595,137.3019,88.0684,272.0459,0,U,52349,999,22996,.21862E-4,.6E-6,0
STARLINK-3754,2022-045V,2026-06-11T14:59:34.759104,15.08831700,.0001358,53.1601,137.3696,86.4693,273.6453,0,U,52350,999,22996,.31708E-4,.217E-5,0
STARLINK-3838,2022-045X,2026-06-11T05:11:22.616736,15.08830852,.0001405,53.1603,139.2057,90.5019,269.6134,0,U,52352,999,22990,.58057E-4,.636E-5,0
STARLINK-3807,2022-045Y,2026-06-11T14:54:16.811424,15.08833612,.0001308,53.1594,137.3853,87.1578,272.9563,0,U,52353,999,22996,-.1935E-4,-.596E-5,0
STARLINK-3877,2022-045AA,2026-06-11T05:16:41.217600,15.08820109,.00012158,53.1600,139.1889,91.5670,268.5461,0,U,52355,999,22990,-.64267763E-4,-.131E-4,0
STARLINK-3801,2022-045AB,2026-06-11T05:00:46.399104,15.08834986,.00013402,53.1608,139.2665,84.7296,275.3848,0,U,52356,999,22990,.15746444E-4,-.37E-6,0
STARLINK-3821,2022-045AC,2026-06-11T05:06:04.031424,15.08833759,.00013078,53.1613,139.2222,86.1295,273.9846,0,U,52357,999,22990,-.9079393E-5,-.432E-5,0
STARLINK-3837,2022-045AD,2026-06-11T15:47:16.302048,15.08832906,.0001346,53.1595,137.2207,87.5200,272.5945,0,U,52358,999,22997,-.46268E-5,-.362E-5,0
STARLINK-3853,2022-045AE,2026-06-11T05:02:04.166880,15.08901653,.00011661,53.1597,139.2447,89.1961,270.9164,0,U,52359,999,22990,.55415021E-3,.8557E-4,0
STARLINK-3728,2022-045AG,2026-06-11T15:57:52.275168,15.08847014,.0001288,53.1602,137.1882,95.1505,264.9633,0,U,52361,999,22997,.77145E-4,.94E-5,0
STARLINK-3848,2022-045AH,2026-06-11T04:25:00.465888,15.08831983,.00016704,53.1616,129.3490,81.2013,278.9167,0,U,52362,999,23003,.16130098E-4,-.31E-6,0
STARLINK-3830,2022-045AJ,2026-06-11T15:52:34.255776,15.08834717,.0001356,53.1590,137.2040,85.1296,274.9850,0,U,52363,999,22997,.11012E-3,.1465E-4,0
STARLINK-3820,2022-045AK,2026-06-11T15:11:29.206752,15.08834597,.0001378,53.1598,127.2440,88.8261,271.2888,0,U,52364,999,23010,.54288E-4,.576E-5,0
STARLINK-3874,2022-045AL,2026-06-11T03:00:12.407904,15.08789036,.00015302,53.1601,129.6135,75.4553,284.6608,0,U,52365,999,23002,.42170201E-3,.6421E-4,0
STARLINK-3808,2022-045AM,2026-06-11T15:16:49.132128,15.08825909,.0001346,53.1621,127.3136,96.0890,264.0255,0,U,52366,999,23010,-.3705E-4,-.877E-5,0
STARLINK-3817,2022-045AN,2026-06-11T04:19:41.809728,15.08836557,.00013963,53.1608,129.3670,87.4463,272.6688,0,U,52367,999,23003,.18009394E-4,-.1E-7,0
STARLINK-3834,2022-045AP,2026-06-11T15:00:54.114048,15.08834255,.000137,53.1604,127.3645,91.2807,268.8341,0,U,52368,999,23009,.83208E-4,.1036E-4,0
STARLINK-3841,2022-045AQ,2026-06-11T15:22:04.778112,15.08849014,.0001461,53.1620,127.2984,89.0340,271.0819,0,U,52369,999,23010,.15774E-3,.2224E-4,0
STARLINK-3827,2022-045AR,2026-06-11T15:12:52.625088,15.08838200,.0001394,53.1607,127.3377,85.4667,274.6484,0,U,52370,999,23010,.58909E-4,.65E-5,0
STARLINK-3798,2022-045AS,2026-06-11T05:35:16.169856,15.08833129,.0001342,53.1612,129.1406,87.0863,273.0282,0,U,52371,999,23003,.1878E-4,.11E-6,0
STARLINK-3796,2022-045AT,2026-06-11T14:55:36.378048,15.08832813,.0001307,53.1607,127.3805,88.3169,271.7972,0,U,52372,999,23009,.36162E-4,.287E-5,0
STARLINK-3550,2022-045AU,2026-06-11T14:39:39.868704,15.08861355,.0001862,53.1601,127.4310,104.7952,255.3246,0,U,52373,999,23010,.27168E-3,.4041E-4,0
STARLINK-3762,2022-045AV,2026-06-11T05:12:38.543328,15.08867983,.0001395,53.1605,129.2015,95.3476,264.7675,0,U,52374,999,23004,.3235E-3,.4868E-4,0
STARLINK-3785,2022-045AW,2026-06-11T14:50:18.401856,15.08834329,.0001379,53.1598,127.3979,90.2920,269.8229,0,U,52375,999,23010,.59061E-4,.652E-5,0
STARLINK-3805,2022-045AY,2026-06-11T15:06:14.378976,15.08834693,.0001408,53.1611,127.5688,87.6875,272.4278,0,U,52377,999,23009,.47192E-4,.463E-5,0
STARLINK-3806,2022-045AZ,2026-06-11T14:23:48.691104,15.08832003,.0001579,53.1601,127.4804,64.9560,295.1596,0,U,52378,999,23010,.16497E-4,-.26E-6,0
STARLINK-3800,2022-045BA,2026-06-11T04:56:48.009408,15.08829070,.00010778,53.1592,129.2509,80.3263,279.7850,0,U,52379,999,23004,-.23098324E-4,-.655E-5,0
STARLINK-3793,2022-045BB,2026-06-11T13:58:38.737920,15.08829625,.0001368,53.1595,117.5887,92.1697,267.9451,0,U,52380,999,23023,.39828E-4,.346E-5,0
STARLINK-3799,2022-045BD,2026-06-11T20:00:01.999008,15.30584287,.0001128,53.2120,120.7948,76.4694,216.3955,0,U,52382,999,587,.36072E-2,.109351E-2,0
STARLINK-3811,2022-045BE,2026-06-11T03:38:37.902912,15.08835758,.00013208,53.1600,119.5237,87.2812,272.8330,0,U,52383,999,23017,.39460034E-4,.34E-5,0
STARLINK-3909,2022-049B,2026-06-11T20:24:07.773408,15.08829683,.0001336,53.1608,6.2258,88.5293,271.5852,0,U,52452,999,22632,.55325E-4,.592E-5,0
STARLINK-3872,2022-049C,2026-06-11T07:14:34.401120,15.08833434,.000144,53.1605,8.8195,62.1540,297.9597,0,U,52453,999,22624,-.35493E-5,-.345E-5,0
STARLINK-3888,2022-049D,2026-06-11T07:19:52.284864,15.08838158,.0001232,53.1622,8.8014,86.0018,274.1114,0,U,52454,999,22624,-.41557E-5,-.354E-5,0
STARLINK-3890,2022-049E,2026-06-11T07:10:39.565056,15.08813677,.000115,53.1606,8.8305,94.4183,265.6940,0,U,52455,999,22624,.29638E-3,.4429E-4,0
STARLINK-3896,2022-049F,2026-06-11T19:48:26.265600,15.08835563,.000133,53.1599,6.4643,89.4711,270.6433,0,U,52456,999,22632,.25149E-4,.112E-5,0
STARLINK-3899,2022-049G,2026-06-10T21:26:21.672096,15.08831815,.00012294,53.1625,10.6444,86.9653,273.1479,0,U,52457,999,22618,.65990697E-4,.762E-5,0
STARLINK-3898,2022-049H,2026-06-10T21:22:26.397120,15.08841162,.00011033,53.1599,10.6651,78.1388,281.9727,0,U,52458,999,22618,-.20605293E-3,-.3566E-4,0
STARLINK-3856,2022-049J,2026-06-11T19:16:35.296320,15.08835098,.0001315,53.1602,356.5657,80.9762,279.1378,0,U,52459,999,22645,.3148E-4,.213E-5,0
STARLINK-3900,2022-049L,2026-06-11T17:37:13.816416,15.08831210,.0001299,53.1603,346.8737,87.2904,272.8236,0,U,52461,999,22658,-.43558E-5,-.357E-5,0
STARLINK-3903,2022-049M,2026-06-11T19:07:22.407168,15.08833239,.0001252,53.1602,356.6028,89.9284,270.1851,0,U,52462,999,22645,.19485E-4,.22E-6,0
STARLINK-3885,2022-049N,2026-06-11T17:31:55.731360,15.08832461,.000152,53.1598,346.8902,93.7629,266.3536,0,U,52463,999,22658,.42984E-4,.396E-5,0
STARLINK-3904,2022-049P,2026-06-11T17:35:54.959136,15.08831639,.0001324,53.1600,356.8780,88.7737,271.3406,0,U,52464,999,22644,.90903E-5,-.143E-5,0
STARLINK-3863,2022-049Q,2026-06-11T19:02:00.822048,15.08835113,.0001331,53.1607,346.6084,90.0248,270.0896,0,U,52465,999,22659,-.14524E-4,-.519E-5,0
STARLINK-3873,2022-049S,2026-06-11T20:36:04.936608,15.08824511,.0001321,53.1607,356.3140,85.0744,275.0398,0,U,52467,999,22646,.37947E-4,.316E-5,0
STARLINK-3864,2022-049T,2026-06-11T20:14:53.095776,15.08830932,.0001218,53.1594,356.3802,85.5869,274.5262,0,U,52468,999,22646,.69149E-4,.813E-5,0
STARLINK-3828,2022-049U,2026-06-11T18:50:05.881056,15.08831708,.0001214,53.1589,356.6530,93.0220,267.0910,0,U,52469,999,22645,.31952E-4,.221E-5,0
STARLINK-3859,2022-049V,2026-06-11T16:53:31.020000,15.08831080,.0002078,53.1606,357.0088,74.0063,286.1158,0,U,52470,999,22644,.26174E-4,.128E-5,0
STARLINK-3862,2022-049W,2026-06-11T20:21:32.628384,15.08852096,.0001589,53.1599,356.3695,78.1794,281.9376,0,U,52471,999,22646,.22188E-3,.3246E-4,0
STARLINK-3881,2022-049X,2026-06-11T16:48:12.693024,15.08832028,.0001321,53.1609,357.0259,91.3624,268.7519,0,U,52472,999,22644,.55905E-4,.602E-5,0
STARLINK-3879,2022-049Y,2026-06-11T16:58:48.645408,15.08832341,.0001366,53.1603,356.9931,87.0666,273.0481,0,U,52473,999,22644,.61697E-4,.694E-5,0
STARLINK-3882,2022-049AA,2026-06-11T20:30:49.313088,15.08833054,.0001333,53.1605,356.5531,86.5512,273.5632,0,U,52475,999,22646,.55244E-4,.591E-5,0
STARLINK-3835,2022-049AB,2026-06-11T19:19:20.002368,15.08832405,.0001197,53.1601,346.7946,87.8424,272.2705,0,U,52476,999,22783,.32388E-4,.227E-5,0
STARLINK-3860,2022-049AC,2026-06-11T18:56:43.029024,15.08837695,.0001248,53.1612,346.6264,86.0766,274.0368,0,U,52477,999,22783,-.49611E-4,-.1077E-4,0
